[Satellite]
VERSION=1.1
NAME=COSMOS 2477 (745)
NICKNAME=COSMOS 2477 (745)
TLE1=1 37868U 11064B   19316.46835811  .00000104  00000-0  00000+0 0  9994
TLE2=2 37868  64.5166 154.5887 0015111 235.1166 103.2964  2.13101800 62439
STATUS=0
